start=new Date('2022-12-07T00:00:00.000Z').valueOf();
sats=[{"ELEMENT_SET_NO":"999","TLE_LINE1":"1 53181U 22083BB  22340.91667824 -.00033125  00000-0 -57738-3 0  9996","BSTAR":"-0.00057738000000","PERIOD":"92.908","FILE":"3683274","REV_AT_EPOCH":"130","SITE":"AFETR","RA_OF_ASC_NODE":"63.4342","SEMIMAJOR_AXIS":"6795.095","MEAN_ANOMALY":"90.9454","MEAN_MOTION_DOT":"-0.00033125","COUNTRY_CODE":"US","INCLINATION":"53.2131","CENTER_NAME":"EARTH","OBJECT_TYPE":"PAYLOAD","RCS_SIZE":"LARGE","DECAY_DATE":null,"TIME_SYSTEM":"UTC","TLE_LINE2":"2 53181  53.2131  63.4342 0001763  36.9469  90.9454 15.49920534  1308","APOAPSIS":"418.158","ECCENTRICITY":"0.00017630","ARG_OF_PERICENTER":"36.9469","CLASSIFICATION_TYPE":"U","MEAN_MOTION":"15.49920534","EPOCH":"2022-12-06T22:00:00.999936","OBJECT_NAME":"STARLINK-4273","NORAD_CAT_ID":"53181","MEAN_ELEMENT_THEORY":"SGP4","MEAN_MOTION_DDOT":"0.0000000000000","REF_FRAME":"TEME","OBJECT_ID":"2022-083BB","GP_ID":"219699102","LAUNCH_DATE":"2022-07-17","PERIAPSIS":"415.762","EPHEMERIS_TYPE":"0"},{"RA_OF_ASC_NODE":"76.6506","REV_AT_EPOCH":"2220","SITE":"AFETR","PERIOD":"95.438","FILE":"3683274","ELEMENT_SET_NO":"999","TLE_LINE1":"1 53182U 22083BC  22340.71186496 -.00001682  00000-0 -87648-4 0  9993","BSTAR":"-0.00008764800000","MEAN_MOTION_DOT":"-0.00001682","MEAN_ANOMALY":"273.8085","SEMIMAJOR_AXIS":"6917.907","CENTER_NAME":"EARTH","INCLINATION":"53.2190","COUNTRY_CODE":"US","TIME_SYSTEM":"UTC","TLE_LINE2":"2 53182  53.2190  76.6506 0001390  86.3066 273.8085 15.08831146 22209","DECAY_DATE":null,"RCS_SIZE":"LARGE","OBJECT_TYPE":"PAYLOAD","APOAPSIS":"540.734","OBJECT_NAME":"STARLINK-4278","EPOCH":"2022-12-06T17:05:05.132544","ECCENTRICITY":"0.00013900","MEAN_MOTION":"15.08831146","CLASSIFICATION_TYPE":"U","ARG_OF_PERICENTER":"86.3066","MEAN_ELEMENT_THEORY":"SGP4","MEAN_MOTION_DDOT":"0.0000000000000","REF_FRAME":"TEME","NORAD_CAT_ID":"53182","PERIAPSIS":"538.811","EPHEMERIS_TYPE":"0","LAUNCH_DATE":"2022-07-17","OBJECT_ID":"2022-083BC","GP_ID":"219698725"},{"OBJECT_TYPE":"PAYLOAD","TLE_LINE2":"2 53183  53.2161  66.1254 0001843  43.0866  85.7401 15.23973759  1307","TIME_SYSTEM":"UTC","DECAY_DATE":null,"RCS_SIZE":"LARGE","COUNTRY_CODE":"US","CENTER_NAME":"EARTH","INCLINATION":"53.2161","MEAN_ANOMALY":"85.7401","SEMIMAJOR_AXIS":"6872.006","MEAN_MOTION_DOT":"-0.01181909","FILE":"3683274","PERIOD":"94.490","TLE_LINE1":"1 53183U 22083BD  22340.91667824 -.01181909  00000-0 -52362-1 0  9999","ELEMENT_SET_NO":"999","BSTAR":"-0.05236200000000","RA_OF_ASC_NODE":"66.1254","SITE":"AFETR","REV_AT_EPOCH":"130","GP_ID":"219699675","OBJECT_ID":"2022-083BD","EPHEMERIS_TYPE":"0","PERIAPSIS":"492.604","LAUNCH_DATE":"2022-07-17","NORAD_CAT_ID":"53183","REF_FRAME":"TEME","MEAN_MOTION_DDOT":"0.0000000000000","MEAN_ELEMENT_THEORY":"SGP4","EPOCH":"2022-12-06T22:00:00.999936","CLASSIFICATION_TYPE":"U","ARG_OF_PERICENTER":"43.0866","MEAN_MOTION":"15.23973759","ECCENTRICITY":"0.00018430","OBJECT_NAME":"STARLINK-4268","APOAPSIS":"495.137"},{"OBJECT_NAME":"STARLINK-4257","EPOCH":"2022-12-07T00:00:02.000160","ECCENTRICITY":"0.00017660","MEAN_MOTION":"15.49883039","CLASSIFICATION_TYPE":"U","ARG_OF_PERICENTER":"38.7970","APOAPSIS":"418.270","PERIAPSIS":"415.870","EPHEMERIS_TYPE":"0","LAUNCH_DATE":"2022-07-17","OBJECT_ID":"2022-083BE","GP_ID":"219671971","MEAN_ELEMENT_THEORY":"SGP4","MEAN_MOTION_DDOT":"0.0000000000000","REF_FRAME":"TEME","NORAD_CAT_ID":"53184","MEAN_MOTION_DOT":"0.00017935","MEAN_ANOMALY":"196.6996","SEMIMAJOR_AXIS":"6795.205","RA_OF_ASC_NODE":"63.0545","REV_AT_EPOCH":"2305","SITE":"AFETR","PERIOD":"92.910","FILE":"3683197","TLE_LINE1":"1 53184U 22083BE  22341.00002315  .00017935  00000-0  32325-3 0  9992","ELEMENT_SET_NO":"999","BSTAR":"0.00032325000000","TIME_SYSTEM":"UTC","TLE_LINE2":"2 53184  53.2160  63.0545 0001766  38.7970 196.6996 15.49883039 23053","RCS_SIZE":"LARGE","DECAY_DATE":null,"OBJECT_TYPE":"PAYLOAD","CENTER_NAME":"EARTH","INCLINATION":"53.2160","COUNTRY_CODE":"US"},{"MEAN_ANOMALY":"316.2395","SEMIMAJOR_AXIS":"6941.119","MEAN_MOTION_DOT":"-0.00000754","PERIOD":"95.919","FILE":"3683274","BSTAR":"-0.00005408400000","TLE_LINE1":"1 53189U 22084A   22340.70273354 -.00000754  00000-0 -54084-4 0  9997","ELEMENT_SET_NO":"999","RA_OF_ASC_NODE":"39.5370","REV_AT_EPOCH":"2160","SITE":"AFWTR","OBJECT_TYPE":"PAYLOAD","TIME_SYSTEM":"UTC","TLE_LINE2":"2 53189  97.6566  39.5370 0001952  43.8984 316.2395 15.01269084 21601","RCS_SIZE":"LARGE","DECAY_DATE":null,"COUNTRY_CODE":"US","CENTER_NAME":"EARTH","INCLINATION":"97.6566","EPOCH":"2022-12-06T16:51:56.177856","ECCENTRICITY":"0.00019520","ARG_OF_PERICENTER":"43.8984","CLASSIFICATION_TYPE":"U","MEAN_MOTION":"15.01269084","OBJECT_NAME":"STARLINK-4391","APOAPSIS":"564.339","GP_ID":"219699478","OBJECT_ID":"2022-084A","PERIAPSIS":"561.629","EPHEMERIS_TYPE":"0","LAUNCH_DATE":"2022-07-22","NORAD_CAT_ID":"53189","MEAN_ELEMENT_THEORY":"SGP4","MEAN_MOTION_DDOT":"0.0000000000000","REF_FRAME":"TEME"},{"MEAN_ELEMENT_THEORY":"SGP4","REF_FRAME":"TEME","MEAN_MOTION_DDOT":"0.0000000000000","NORAD_CAT_ID":"53190","LAUNCH_DATE":"2022-07-22","PERIAPSIS":"562.329","EPHEMERIS_TYPE":"0","OBJECT_ID":"2022-084B","GP_ID":"219672954","APOAPSIS":"563.737","OBJECT_NAME":"STARLINK-4332","ECCENTRICITY":"0.00010140","ARG_OF_PERICENTER":"91.5667","CLASSIFICATION_TYPE":"U","MEAN_MOTION":"15.01253194","EPOCH":"2022-12-06T15:58:58.614816","INCLINATION":"97.6559","CENTER_NAME":"EARTH","COUNTRY_CODE":"US","DECAY_DATE":null,"RCS_SIZE":"LARGE","TIME_SYSTEM":"UTC","TLE_LINE2":"2 53190  97.6559  39.4686 0001014  91.5667 268.5673 15.01253194 21301","OBJECT_TYPE":"PAYLOAD","REV_AT_EPOCH":"2130","SITE":"AFWTR","RA_OF_ASC_NODE":"39.4686","TLE_LINE1":"1 53190U 22084B   22340.66595619  .00000126  00000-0  14384-4 0  9995","BSTAR":"0.00001438400000","ELEMENT_SET_NO":"999","PERIOD":"95.920","FILE":"3683243","MEAN_MOTION_DOT":"0.00000126","SEMIMAJOR_AXIS":"6941.168","MEAN_ANOMALY":"268.5673"},{"APOAPSIS":"564.261","OBJECT_NAME":"STARLINK-4369","EPOCH":"2022-12-06T18:19:55.365600","ECCENTRICITY":"0.00017670","MEAN_MOTION":"15.01252671","CLASSIFICATION_TYPE":"U","ARG_OF_PERICENTER":"60.9425","MEAN_ELEMENT_THEORY":"SGP4","MEAN_MOTION_DDOT":"0.0000000000000","REF_FRAME":"TEME","NORAD_CAT_ID":"53191","PERIAPSIS":"561.808","EPHEMERIS_TYPE":"0","LAUNCH_DATE":"2022-07-22","OBJECT_ID":"2022-084C","GP_ID":"219699300","RA_OF_ASC_NODE":"39.5694","REV_AT_EPOCH":"2093","SITE":"AFWTR","PERIOD":"95.920","FILE":"3683274","TLE_LINE1":"1 53191U 22084C   22340.76383525 -.00002914  00000-0 -22242-3 0  9998","ELEMENT_SET_NO":"999","BSTAR":"-0.00022242000000","MEAN_MOTION_DOT":"-0.00002914","MEAN_ANOMALY":"299.1976","SEMIMAJOR_AXIS":"6941.169","CENTER_NAME":"EARTH","INCLINATION":"97.6549","COUNTRY_CODE":"US","TIME_SYSTEM":"UTC","TLE_LINE2":"2 53191  97.6549  39.5694 0001767  60.9425 299.1976 15.01252671 20931","DECAY_DATE":null,"RCS_SIZE":"LARGE","OBJECT_TYPE":"PAYLOAD"},{"REV_AT_EPOCH":"2158","SITE":"AFWTR","RA_OF_ASC_NODE":"39.4362","TLE_LINE1":"1 53192U 22084D   22340.62867741 -.00000530  00000-0 -36709-4 0  9997","ELEMENT_SET_NO":"999","BSTAR":"-0.00003670900000","PERIOD":"95.919","FILE":"3683274","MEAN_MOTION_DOT":"-0.00000530","SEMIMAJOR_AXIS":"6941.150","MEAN_ANOMALY":"267.1061","INCLINATION":"97.6552","CENTER_NAME":"EARTH","COUNTRY_CODE":"US","RCS_SIZE":"LARGE","DECAY_DATE":null,"TIME_SYSTEM":"UTC","TLE_LINE2":"2 53192  97.6552  39.4362 0001832  93.0373 267.1061 15.01258877 21585","OBJECT_TYPE":"PAYLOAD","APOAPSIS":"564.287","OBJECT_NAME":"STARLINK-4375","ECCENTRICITY":"0.00018320","CLASSIFICATION_TYPE":"U","ARG_OF_PERICENTER":"93.0373","MEAN_MOTION":"15.01258877","EPOCH":"2022-12-06T15:05:17.728224","MEAN_ELEMENT_THEORY":"SGP4","REF_FRAME":"TEME","MEAN_MOTION_DDOT":"0.0000000000000","NORAD_CAT_ID":"53192","LAUNCH_DATE":"2022-07-22","PERIAPSIS":"561.744","EPHEMERIS_TYPE":"0","OBJECT_ID":"2022-084D","GP_ID":"219698510"},{"MEAN_MOTION_DOT":"0.00000373","MEAN_ANOMALY":"303.5401","SEMIMAJOR_AXIS":"6941.142","RA_OF_ASC_NODE":"39.4515","SITE":"AFWTR","REV_AT_EPOCH":"2193","FILE":"3683274","PERIOD":"95.919","TLE_LINE1":"1 53193U 22084E   22340.63423248  .00000373  00000-0  33605-4 0  9994","ELEMENT_SET_NO":"999","BSTAR":"0.00003360500000","TLE_LINE2":"2 53193  97.6541  39.4515 0001964  56.6011 303.5401 15.01261459 21936","TIME_SYSTEM":"UTC","DECAY_DATE":null,"RCS_SIZE":"LARGE","OBJECT_TYPE":"PAYLOAD","CENTER_NAME":"EARTH","INCLINATION":"97.6541","COUNTRY_CODE":"US","OBJECT_NAME":"STARLINK-4351","EPOCH":"2022-12-06T15:13:17.686272","CLASSIFICATION_TYPE":"U","MEAN_MOTION":"15.01261459","ARG_OF_PERICENTER":"56.6011","ECCENTRICITY":"0.00019640","APOAPSIS":"564.371","EPHEMERIS_TYPE":"0","PERIAPSIS":"561.644","LAUNCH_DATE":"2022-07-22","OBJECT_ID":"2022-084E","GP_ID":"219699103","MEAN_MOTION_DDOT":"0.0000000000000","REF_FRAME":"TEME","MEAN_ELEMENT_THEORY":"SGP4","NORAD_CAT_ID":"53193"},{"MEAN_MOTION_DOT":"-0.00001286","MEAN_ANOMALY":"314.8355","SEMIMAJOR_AXIS":"6941.133","RA_OF_ASC_NODE":"39.5766","REV_AT_EPOCH":"2093","SITE":"AFWTR","PERIOD":"95.919","FILE":"3683274","ELEMENT_SET_NO":"999","TLE_LINE1":"1 53194U 22084F   22340.76568488 -.00001286  00000-0 -95513-4 0  9997","BSTAR":"-0.00009551300000","TIME_SYSTEM":"UTC","TLE_LINE2":"2 53194  97.6518  39.5766 0001804  45.3016 314.8355 15.01264335 20931","RCS_SIZE":"LARGE","DECAY_DATE":null,"OBJECT_TYPE":"PAYLOAD","CENTER_NAME":"EARTH","INCLINATION":"97.6518","COUNTRY_CODE":"US","OBJECT_NAME":"STARLINK-4382","EPOCH":"2022-12-06T18:22:35.173632","ECCENTRICITY":"0.00018040","ARG_OF_PERICENTER":"45.3016","CLASSIFICATION_TYPE":"U","MEAN_MOTION":"15.01264335","APOAPSIS":"564.251","PERIAPSIS":"561.746","EPHEMERIS_TYPE":"0","LAUNCH_DATE":"2022-07-22","GP_ID":"219698726","OBJECT_ID":"2022-084F","MEAN_ELEMENT_THEORY":"SGP4","REF_FRAME":"TEME","MEAN_MOTION_DDOT":"0.0000000000000","NORAD_CAT_ID":"53194"}];
